$$SOE
2460147.500000000, A.D. 2023-Jul-22 00:00:00.0000, -3.482787243479872E+08, -3.070673306915712E+08, -9.505467413553201E+07,
2460154.500000000, A.D. 2023-Jul-29 00:00:00.0000, -3.414855296450083E+08, -3.129208178133912E+08, -9.441397853021458E+07,
2460161.500000000, A.D. 2023-Aug-05 00:00:00.0000, -3.345354464599934E+08, -3.186304918652445E+08, -9.372988634141590E+07,
2460168.500000000, A.D. 2023-Aug-12 00:00:00.0000, -3.274304027451739E+08, -3.241925213950541E+08, -9.300235632731184E+07,
2460175.500000000, A.D. 2023-Aug-19 00:00:00.0000, -3.201723898690197E+08, -3.296030402854500E+08, -9.223135531578016E+07,
2460182.500000000, A.D. 2023-Aug-26 00:00:00.0000, -3.127634659313918E+08, -3.348581464796914E+08, -9.141685868308631E+07,
2460189.500000000, A.D. 2023-Sep-02 00:00:00.0000, -3.052057592733088E+08, -3.399539008351189E+08, -9.055885087442064E+07,
2460196.500000000, A.D. 2023-Sep-09 00:00:00.0000, -2.975014721526455E+08, -3.448863261519371E+08, -8.965732597509937E+07,
2460203.500000000, A.D. 2023-Sep-16 00:00:00.0000, -2.896528844255354E+08, -3.496514064425478E+08, -8.871228835475177E+07,
2460210.500000000, A.D. 2023-Sep-23 00:00:00.0000, -2.816623568255352E+08, -3.542450861626016E+08, -8.772375340147157E+07,
2460217.500000000, A.D. 2023-Sep-30 00:00:00.0000, -2.735323341887411E+08, -3.586632682216230E+08, -8.669174821971688E+07,
2460224.500000000, A.D. 2023-Oct-07 00:00:00.0000, -2.652653509869356E+08, -3.629018113253521E+08, -8.561631212267509E+07,
2460231.500000000, A.D. 2023-Oct-14 00:00:00.0000, -2.568640381373882E+08, -3.669565299742452E+08, -8.449749728793314E+07,
2460238.500000000, A.D. 2023-Oct-21 00:00:00.0000, -2.483311278706750E+08, -3.708231955287835E+08, -8.333536974487935E+07,
2460245.500000000, A.D. 2023-Oct-28 00:00:00.0000, -2.396694580915801E+08, -3.744975360952315E+08, -8.213001038161473E+07,
2460252.500000000, A.D. 2023-Nov-04 00:00:00.0000, -2.308819774933560E+08, -3.779752360164138E+08, -8.088151592254068E+07,
2460259.500000000, A.D. 2023-Nov-11 00:00:00.0000, -2.219717512575604E+08, -3.812519355829056E+08, -7.958999994485803E+07,
2460266.500000000, A.D. 2023-Nov-18 00:00:00.0000, -2.129419671294895E+08, -3.843232310464969E+08, -7.825559396262531E+07,
2460273.500000000, A.D. 2023-Nov-25 00:00:00.0000, -2.037959418060651E+08, -3.871846749333245E+08, -7.687844858694299E+07,
2460280.500000000, A.D. 2023-Dec-02 00:00:00.0000, -1.945371276180986E+08, -3.898317766900643E+08, -7.545873476987466E+07,
2460287.500000000, A.D. 2023-Dec-09 00:00:00.0000, -1.851691194393640E+08, -3.922600037462184E+08, -7.399664514834884E+07,
2460294.500000000, A.D. 2023-Dec-16 00:00:00.0000, -1.756956615448866E+08, -3.944647830060626E+08, -7.249239551781198E+07,
2460301.500000000, A.D. 2023-Dec-23 00:00:00.0000, -1.661206540794087E+08, -3.964415021111814E+08, -7.094622641600250E+07,
2460308.500000000, A.D. 2023-Dec-30 00:00:00.0000, -1.564481604847850E+08, -3.981855094548203E+08, -6.935840461285001E+07,
2460315.500000000, A.D. 2024-Jan-06 00:00:00.0000, -1.466824176656790E+08, -3.996921153417768E+08, -6.772922454171708E+07,
2460322.500000000, A.D. 2024-Jan-13 00:00:00.0000, -1.368278457265786E+08, -4.009565961383086E+08, -6.605901011620006E+07,
2460329.500000000, A.D. 2024-Jan-20 00:00:00.0000, -1.268890560623696E+08, -4.019741983696189E+08, -6.434811679864183E+07,
2460336.500000000, A.D. 2024-Jan-27 00:00:00.0000, -1.168708598362360E+08, -4.027401421575665E+08, -6.259693368676668E+07,
2460343.500000000, A.D. 2024-Feb-03 00:00:00.0000, -1.067782772765740E+08, -4.032496249946162E+08, -6.080588566209462E+07,
2460350.500000000, A.D. 2024-Feb-10 00:00:00.0000, -9.661654751667124E+07, -4.034978261952155E+08, -5.897543565433651E+07,
2460357.500000000, A.D. 2024-Feb-17 00:00:00.0000, -8.639113883621243E+07, -4.034799120693244E+08, -5.710608703823793E+07,
2460364.500000000, A.D. 2024-Feb-24 00:00:00.0000, -7.610775926166891E+07, -4.031910418594995E+08, -5.519838616902119E+07,
2460371.500000000, A.D. 2024-Mar-02 00:00:00.0000, -6.577236748384077E+07, -4.026263745356399E+08, -5.325292506595540E+07,
2460378.500000000, A.D. 2024-Mar-09 00:00:00.0000, -5.539118393636718E+07, -4.017810765787334E+08, -5.127034426653329E+07,
2460385.500000000, A.D. 2024-Mar-16 00:00:00.0000, -4.497070161829820E+07, -4.006503306320025E+08, -4.925133587623900E+07,
2460392.500000000, A.D. 2024-Mar-23 00:00:00.0000, -3.451769673868416E+07, -3.992293439918386E+08, -4.719664671814445E+07,
2460399.500000000, A.D. 2024-Mar-30 00:00:00.0000, -2.403924139319826E+07, -3.975133570499570E+08, -4.510708138198614E+07,
2460406.500000000, A.D. 2024-Apr-06 00:00:00.0000, -1.354271797705725E+07, -3.954976551417372E+08, -4.298350547293752E+07,
2460413.500000000, A.D. 2024-Apr-13 00:00:00.0000, -3.035831733413291E+06, -3.931775830571415E+08, -4.082684931780601E+07,
2460420.500000000, A.D. 2024-Apr-20 00:00:00.0000, 7.473377670315744E+06, -3.905485596356519E+08, -3.863811182145610E+07,
2460427.500000000, A.D. 2024-Apr-27 00:00:00.0000, 1.797652409243486E+07, -3.876060931079357E+08, -3.641836437716302E+07,
2460434.500000000, A.D. 2024-May-04 00:00:00.0000, 2.846486256579507E+07, -3.843457979919937E+08, -3.416875489138347E+07,
2460441.500000000, A.D. 2024-May-11 00:00:00.0000, 3.892927698295362E+07, -3.807634137525191E+08, -3.189051194572881E+07,
2460448.500000000, A.D. 2024-May-18 00:00:00.0000, 4.936026801510479E+07, -3.768548253099973E+08, -2.958494909175010E+07,
2460455.500000000, A.D. 2024-May-25 00:00:00.0000, 5.974794142366114E+07, -3.726160855152099E+08, -2.725346926816769E+07,
2460462.500000000, A.D. 2024-Jun-01 00:00:00.0000, 7.008199697900616E+07, -3.680434397554277E+08, -2.489756933401488E+07,
2460469.500000000, A.D. 2024-Jun-08 00:00:00.0000, 8.035171840862302E+07, -3.631333528232043E+08, -2.251884472122353E+07,
2460476.500000000, A.D. 2024-Jun-15 00:00:00.0000, 9.054596497207311E+07, -3.578825376063331E+08, -2.011899417276065E+07,
2460483.500000000, A.D. 2024-Jun-22 00:00:00.0000, 1.006531638793710E+08, -3.522879845187744E+08, -1.769982434640443E+07,
2460490.500000000, A.D. 2024-Jun-29 00:00:00.0000, 1.106613016787534E+08, -3.463469935744804E+08, -1.526325420050158E+07,
2460497.500000000, A.D. 2024-Jul-06 00:00:00.0000, 1.205579175353098E+08, -3.400572116395340E+08, -1.281131956185341E+07,
2460504.500000000, A.D. 2024-Jul-13 00:00:00.0000, 1.303301006560238E+08, -3.334166720848845E+08, -1.034617777209090E+07,
2460511.500000000, A.D. 2024-Jul-20 00:00:00.0000, 1.399644902108675E+08, -3.264238357127480E+08, -7.870112076814935E+06,
2460518.500000000, A.D. 2024-Jul-27 00:00:00.0000, 1.494472774593713E+08, -3.190776339052049E+08, -5.385535707590073E+06,
2460525.500000000, A.D. 2024-Aug-03 00:00:00.0000, 1.587642107520370E+08, -3.113775143212694E+08, -2.894995635631576E+06,
2460532.500000000, A.D. 2024-Aug-10 00:00:00.0000, 1.679006039981280E+08, -3.033234890553892E+08, -4.011759268052876E+05,
2460539.500000000, A.D. 2024-Aug-17 00:00:00.0000, 1.768413490980875E+08, -2.949161850941809E+08, 2.093099395036638E+06,
2460546.500000000, A.D. 2024-Aug-24 00:00:00.0000, 1.855709328394617E+08, -2.861568968926797E+08, 4.584864077341914E+06,
2460553.500000000, A.D. 2024-Aug-31 00:00:00.0000, 1.940734588587804E+08, -2.770476408619484E+08, 7.071008060341522E+06,
2460560.500000000, A.D. 2024-Sep-07 00:00:00.0000, 2.023326755312017E+08, -2.675912112969342E+08, 9.548276692791656E+06,
2460567.500000000, A.D. 2024-Sep-14 00:00:00.0000, 2.103320103674214E+08, -2.577912363213822E+08, 1.201327095027837E+07,
2460574.500000000, A.D. 2024-Sep-21 00:00:00.0000, 2.180546093672142E+08, -2.476522329157013E+08, 1.446244901798822E+07,
2460581.500000000, A.D. 2024-Sep-28 00:00:00.0000, 2.254833812912773E+08, -2.371796636283911E+08, 1.689212916552855E+07,
2460588.500000000, A.D. 2024-Oct-05 00:00:00.0000, 2.326010509296848E+08, -2.263799942341015E+08, 1.929849372643777E+07,
2460595.500000000, A.D. 2024-Oct-12 00:00:00.0000, 2.393902213569520E+08, -2.152607485181751E+08, 2.167759460861327E+07,
2460602.500000000, A.D. 2024-Oct-19 00:00:00.0000, 2.458334436907987E+08, -2.038305595130377E+08, 2.402536062048005E+07,
2460609.500000000, A.D. 2024-Oct-26 00:00:00.0000, 2.519132944831015E+08, -1.920992169384841E+08, 2.633760668866795E+07,
2460616.500000000, A.D. 2024-Nov-02 00:00:00.0000, 2.576124610285859E+08, -1.800777098491244E+08, 2.861004505618618E+07,
2460623.500000000, A.D. 2024-Nov-09 00:00:00.0000, 2.629138345559054E+08, -1.677782632395540E+08, 3.083829855809710E+07,
2460630.500000000, A.D. 2024-Nov-16 00:00:00.0000, 2.678006110090686E+08, -1.552143673101819E+08, 3.301791604766261E+07,
2460637.500000000, A.D. 2024-Nov-23 00:00:00.0000, 2.722563989423977E+08, -1.424007981003820E+08, 3.514439000316501E+07,
2460644.500000000, A.D. 2024-Nov-30 00:00:00.0000, 2.762653339951922E+08, -1.293536281733233E+08, 3.721317628952169E+07,
2460651.500000000, A.D. 2024-Dec-07 00:00:00.0000, 2.798121993983608E+08, -1.160902256031140E+08, 3.921971602436984E+07,
2460658.500000000, A.D. 2024-Dec-14 00:00:00.0000, 2.828825506224792E+08, -1.026292387986795E+08, 4.115945962096523E+07,
2460665.500000000, A.D. 2024-Dec-21 00:00:00.0000, 2.854628403923268E+08, -8.899056730091369E+07, 4.302789297289792E+07,
2460672.500000000, A.D. 2024-Dec-28 00:00:00.0000, 2.875405443263643E+08, -7.519532058697641E+07, 4.482056514373628E+07,
2460679.500000000, A.D. 2025-Jan-04 00:00:00.0000, 2.891042878600988E+08, -6.126576178933518E+07, 4.653311723723426E+07,
2460686.500000000, A.D. 2025-Jan-11 00:00:00.0000, 2.901439705120789E+08, -4.722523423191957E+07, 4.816131240825329E+07,
2460693.500000000, A.D. 2025-Jan-18 00:00:00.0000, 2.906508843154156E+08, -3.309807159388929E+07, 4.970106662156244E+07,
2460700.500000000, A.D. 2025-Jan-25 00:00:00.0000, 2.906178243124739E+08, -1.890949243625583E+07, 5.114847964194246E+07,
2460707.500000000, A.D. 2025-Feb-01 00:00:00.0000, 2.900391889383437E+08, -4.685479781021651E+06, 5.249986573615660E+07,
$$EOE